[
  {
    "name": "STARLINK-32016",
    "noradId": "60096",
    "line1": "1 60096U 24117F   26179.91668981  .00001980  00000+0  71515-4 0  9999",
    "line2": "2 60096  53.1591 240.6483 0001120  93.2916 264.8297 15.33549452  5710"
  },
  {
    "name": "STARLINK-32003",
    "noradId": "60097",
    "line1": "1 60097U 24117G   26179.49868797  .00000558  00000+0  30978-4 0  9998",
    "line2": "2 60097  53.1597 242.2977 0001263  89.1825 270.9320 15.30193907113851"
  },
  {
    "name": "STARLINK-32026",
    "noradId": "60098",
    "line1": "1 60098U 24117H   26179.91668981  .00007304  00000+0  22720-3 0  9990",
    "line2": "2 60098  53.1601 240.3606 0001215  85.6165  57.2311 15.34384372  5871"
  },
  {
    "name": "STARLINK-31732",
    "noradId": "60099",
    "line1": "1 60099U 24117J   26179.47547428  .00000208  00000+0  19151-4 0  9995",
    "line2": "2 60099  53.1595 242.1521 0000969  98.8661 261.2450 15.30194833113858"
  },
  {
    "name": "STARLINK-31996",
    "noradId": "60100",
    "line1": "1 60100U 24117K   26179.91668981  .00052618  00000+0  15634-2 0  9997",
    "line2": "2 60100  53.1585 240.1297 0001766 110.9578 148.2221 15.34282207  5865"
  },
  {
    "name": "STARLINK-31999",
    "noradId": "60101",
    "line1": "1 60101U 24117L   26179.65124121  .00055444  00000+0  16576-2 0  9998",
    "line2": "2 60101  53.1602 241.8302 0001074  79.2047 280.9076 15.34061927113878"
  },
  {
    "name": "STARLINK-31954",
    "noradId": "60102",
    "line1": "1 60102U 24117M   26179.91668981  .01564829  00000+0  47747-1 0  9991",
    "line2": "2 60102  53.1578 240.6791 0001207  90.0108 251.1988 15.30441283  5906"
  },
  {
    "name": "STARLINK-32013",
    "noradId": "60103",
    "line1": "1 60103U 24117N   26179.45975486  .00000649  00000+0  34026-4 0  9995",
    "line2": "2 60103  53.1595 242.7668 0001019  82.1444 277.9673 15.30197859113845"
  },
  {
    "name": "STARLINK-32009",
    "noradId": "60104",
    "line1": "1 60104U 24117P   26179.57359371  .00011552  00000+0  35243-3 0  9994",
    "line2": "2 60104  53.1589 242.0305 0001150  80.7278 279.3854 15.34407099113868"
  },
  {
    "name": "STARLINK-32018",
    "noradId": "60105",
    "line1": "1 60105U 24117Q   26179.48742095  .00000919  00000+0  38327-4 0  9996",
    "line2": "2 60105  53.1596 242.2292 0001245  94.3373 265.7772 15.34390347113850"
  },
  {
    "name": "STARLINK-32045",
    "noradId": "60106",
    "line1": "1 60106U 24117R   26179.48111340  .00006681  00000+0  20877-3 0  9992",
    "line2": "2 60106  53.1582 242.1900 0001432  80.1091 280.0073 15.34390426113851"
  },
  {
    "name": "STARLINK-32035",
    "noradId": "60107",
    "line1": "1 60107U 24117S   26179.91668981  .00050604  00000+0  15444-2 0  9996",
    "line2": "2 60107  53.1594 240.4135 0000708  81.6494  33.2650 15.33450535  5816"
  },
  {
    "name": "STARLINK-32042",
    "noradId": "60108",
    "line1": "1 60108U 24117T   26179.49552489 -.00005669  00000+0 -17936-3 0  9997",
    "line2": "2 60108  53.1590 242.2764 0000896  66.6490 293.4605 15.30212986113855"
  },
  {
    "name": "STARLINK-32040",
    "noradId": "60109",
    "line1": "1 60109U 24117U   26179.47758550 -.00000261  00000+0  33094-5 0  9990",
    "line2": "2 60109  53.1592 242.1703 0001085 100.6724 259.4399 15.30193462113859"
  },
  {
    "name": "STARLINK-32001",
    "noradId": "60110",
    "line1": "1 60110U 24117V   26179.91668981  .00005995  00000+0  18843-3 0  9990",
    "line2": "2 60110  53.1578 240.1047 0001431  82.0144 188.6796 15.34399259  5869"
  },
  {
    "name": "STARLINK-32015",
    "noradId": "60111",
    "line1": "1 60111U 24117W   26179.47969564  .00002053  00000+0  81470-4 0  9992",
    "line2": "2 60111  53.1597 242.1746 0001110  95.6187 264.4941 15.30175662113850"
  },
  {
    "name": "STARLINK-32024",
    "noradId": "60112",
    "line1": "1 60112U 24117X   26179.49236082  .00000122  00000+0  16245-4 0  9990",
    "line2": "2 60112  53.1595 242.2560 0000998  91.4477 268.6638 15.30189113113858"
  },
  {
    "name": "STARLINK-11201 [DTC]",
    "noradId": "60113",
    "line1": "1 60113U 24118A   26179.88572226 -.00000775  00000+0 -15388-5 0  9992",
    "line2": "2 60113  53.1588  33.4219 0000928  87.2645 272.8479 15.69704811115453"
  },
  {
    "name": "STARLINK-11198 [DTC]",
    "noradId": "60114",
    "line1": "1 60114U 24118B   26179.81715037  .00000541  00000+0  93227-5 0  9992",
    "line2": "2 60114  53.1593  33.7012 0000977  82.1688 277.9441 15.69699713115447"
  },
  {
    "name": "STARLINK-11112 [DTC]",
    "noradId": "60115",
    "line1": "1 60115U 24118C   26179.81223927 -.00001158  00000+0 -47056-5 0  9991",
    "line2": "2 60115  53.1591  33.6677 0000710  89.5786 270.5313 15.69710457115443"
  },
  {
    "name": "STARLINK-11210 [DTC]",
    "noradId": "60116",
    "line1": "1 60116U 24118D   26179.80733427 -.00000251  00000+0  27853-5 0  9997",
    "line2": "2 60116  53.1622  33.6402 0000998  82.6976 277.4155 15.69709521115448"
  },
  {
    "name": "STARLINK-11203 [DTC]",
    "noradId": "60117",
    "line1": "1 60117U 24118E   26179.86610038 -.00000837  00000+0 -20533-5 0  9995",
    "line2": "2 60117  53.1589  33.2896 0000860 109.1763 250.9349 15.69704739115459"
  },
  {
    "name": "STARLINK-11177 [DTC]",
    "noradId": "60118",
    "line1": "1 60118U 24118F   26179.86119257 -.00000313  00000+0  22730-5 0  9992",
    "line2": "2 60118  53.1589  33.2568 0000887  77.6782 282.4336 15.69705593115450"
  },
  {
    "name": "STARLINK-11127 [DTC]",
    "noradId": "60119",
    "line1": "1 60119U 24118G   26179.85628818  .00001432  00000+0  16681-4 0  9999",
    "line2": "2 60119  53.1599  33.2256 0001071  68.0540 292.0592 15.69702414115458"
  },
  {
    "name": "STARLINK-11164 [DTC]",
    "noradId": "60120",
    "line1": "1 60120U 24118H   26179.85138144  .00008372  00000+0  73861-4 0  9992",
    "line2": "2 60120  53.1568  33.1911 0000853  83.1568 276.9547 15.69718958115459"
  },
  {
    "name": "STARLINK-11119 [DTC]",
    "noradId": "60121",
    "line1": "1 60121U 24118J   26179.90033238  .00002126  00000+0  22399-4 0  9998",
    "line2": "2 60121  53.1575  32.7804 0000836  94.3317 265.7797 15.69712821115468"
  },
  {
    "name": "STARLINK-11157 [DTC]",
    "noradId": "60122",
    "line1": "1 60122U 24118K   26179.96890157 -.00002191  00000+0 -13220-4 0  9993",
    "line2": "2 60122  53.1600  32.4984 0000813  78.8127 281.2982 15.69727288115478"
  },
  {
    "name": "STARLINK-11162 [DTC]",
    "noradId": "60123",
    "line1": "1 60123U 24118L   26179.89542749  .00000878  00000+0  12102-4 0  9993",
    "line2": "2 60123  53.1592  32.7474 0000884  98.1354 261.9764 15.69709903115467"
  },
  {
    "name": "STARLINK-11161 [DTC]",
    "noradId": "60124",
    "line1": "1 60124U 24118M   26179.89064185 -.00004412  00000+0 -31636-4 0  9990",
    "line2": "2 60124  53.1587  33.4477 0000942  89.8573 270.2553 15.69670376115457"
  },
  {
    "name": "STARLINK-11160 [DTC]",
    "noradId": "60125",
    "line1": "1 60125U 24118N   26179.97381133  .00001153  00000+0  14366-4 0  9993",
    "line2": "2 60125  53.1592  32.5268 0000795  83.3837 276.7271 15.69713009115471"
  }
]