OBJECT_NAME,OBJECT_ID,EPOCH,MEAN_MOTION,ECCENTRICITY,INCLINATION,RA_OF_ASC_NODE,ARG_OF_PERICENTER,MEAN_ANOMALY,EPHEMERIS_TYPE,CLASSIFICATION_TYPE,NORAD_CAT_ID,ELEMENT_SET_NO,REV_AT_EPOCH,BSTAR,MEAN_MOTION_DOT,MEAN_MOTION_DDOT
STARLINK-32016,2024-117F,2026-06-28T22:00:01.999584,15.33549452,.00011206,53.1591,240.6483,93.2916,264.8297,0,U,60096,999,571,.71515123E-4,.198E-4,0
STARLINK-32003,2024-117G,2026-06-28T11:58:06.640608,15.30193907,.00012634,53.1597,242.2977,89.1825,270.9320,0,U,60097,999,11385,.30977937E-4,.558E-5,0
STARLINK-32026,2024-117H,2026-06-28T22:00:01.999584,15.34384372,.00012151,53.1601,240.3606,85.6165,57.2311,0,U,60098,999,587,.22719994E-3,.7304E-4,0
STARLINK-31732,2024-117J,2026-06-28T11:24:40.977792,15.30194833,.00009695,53.1595,242.1521,98.8661,261.2450,0,U,60099,999,11385,.19150504E-4,.208E-5,0
STARLINK-31996,2024-117K,2026-06-28T22:00:01.999584,15.34282207,.00017669,53.1585,240.1297,110.9578,148.2221,0,U,60100,999,586,.15633512E-2,.52618E-3,0
STARLINK-31999,2024-117L,2026-06-28T15:37:47.240544,15.34061927,.00010746,53.1602,241.8302,79.2047,280.9076,0,U,60101,999,11387,.16576318E-2,.55444E-3,0
STARLINK-31954,2024-117M,2026-06-28T22:00:01.999584,15.30441283,.00012075,53.1578,240.6791,90.0108,251.1988,0,U,60102,999,590,.47746717E-1,.1564829E-1,0
STARLINK-32013,2024-117N,2026-06-28T11:02:02.819904,15.30197859,.00010191,53.1595,242.7668,82.1444,277.9673,0,U,60103,999,11384,.34026113E-4,.649E-5,0
STARLINK-32009,2024-117P,2026-06-28T13:45:58.496544,15.34407099,.00011505,53.1589,242.0305,80.7278,279.3854,0,U,60104,999,11386,.35243351E-3,.11552E-3,0
STARLINK-32018,2024-117Q,2026-06-28T11:41:53.170080,15.34390347,.00012453,53.1596,242.2292,94.3373,265.7772,0,U,60105,999,11385,.3832703E-4,.919E-5,0
STARLINK-32045,2024-117R,2026-06-28T11:32:48.197760,15.34390426,.00014329,53.1582,242.1900,80.1091,280.0073,0,U,60106,999,11385,.20876707E-3,.6681E-4,0
STARLINK-32035,2024-117S,2026-06-28T22:00:01.999584,15.33450535,.00007089,53.1594,240.4135,81.6494,33.2650,0,U,60107,999,581,.15443941E-2,.50604E-3,0
STARLINK-32042,2024-117T,2026-06-28T11:53:33.350496,15.30212986,.00008961,53.1590,242.2764,66.6490,293.4605,0,U,60108,999,11385,-.17935756E-3,-.5669E-4,0
STARLINK-32040,2024-117U,2026-06-28T11:27:43.387200,15.30193462,.00010853,53.1592,242.1703,100.6724,259.4399,0,U,60109,999,11385,.3309427E-5,-.261E-5,0
STARLINK-32001,2024-117V,2026-06-28T22:00:01.999584,15.34399259,.00014316,53.1578,240.1047,82.0144,188.6796,0,U,60110,999,586,.18843403E-3,.5995E-4,0
STARLINK-32015,2024-117W,2026-06-28T11:30:45.703296,15.30175662,.00011103,53.1597,242.1746,95.6187,264.4941,0,U,60111,999,11385,.81469794E-4,.2053E-4,0
STARLINK-32024,2024-117X,2026-06-28T11:48:59.974848,15.30189113,.00009982,53.1595,242.2560,91.4477,268.6638,0,U,60112,999,11385,.16244826E-4,.122E-5,0
STARLINK-11201 [DTC],2024-118A,2026-06-28T21:15:26.403264,15.69704811,.00009287,53.1588,33.4219,87.2645,272.8479,0,U,60113,999,11545,-.1538764E-5,-.775E-5,0
STARLINK-11198 [DTC],2024-118B,2026-06-28T19:36:41.791968,15.69699713,.00009773,53.1593,33.7012,82.1688,277.9441,0,U,60114,999,11544,.9322697E-5,.541E-5,0
STARLINK-11112 [DTC],2024-118C,2026-06-28T19:29:37.472928,15.69710457,.00007105,53.1591,33.6677,89.5786,270.5313,0,U,60115,999,11544,-.4705618E-5,-.1158E-4,0
STARLINK-11210 [DTC],2024-118D,2026-06-28T19:22:33.680928,15.69709521,.00009988,53.1622,33.6402,82.6976,277.4155,0,U,60116,999,11544,.2785339E-5,-.251E-5,0
STARLINK-11203 [DTC],2024-118E,2026-06-28T20:47:11.072832,15.69704739,.00008602,53.1589,33.2896,109.1763,250.9349,0,U,60117,999,11545,-.2053329E-5,-.837E-5,0
STARLINK-11177 [DTC],2024-118F,2026-06-28T20:40:07.038048,15.69705593,.00008878,53.1589,33.2568,77.6782,282.4336,0,U,60118,999,11545,.2272955E-5,-.313E-5,0
STARLINK-11127 [DTC],2024-118G,2026-06-28T20:33:03.298752,15.69702414,.00010712,53.1599,33.2256,68.0540,292.0592,0,U,60119,999,11545,.16680561E-4,.1432E-4,0
STARLINK-11164 [DTC],2024-118H,2026-06-28T20:25:59.356416,15.69718958,.0000853,53.1568,33.1911,83.1568,276.9547,0,U,60120,999,11545,.73861414E-4,.8372E-4,0
STARLINK-11119 [DTC],2024-118J,2026-06-28T21:36:28.717632,15.69712821,.0000836,53.1575,32.7804,94.3317,265.7797,0,U,60121,999,11546,.22398618E-4,.2126E-4,0
STARLINK-11157 [DTC],2024-118K,2026-06-28T23:15:13.095648,15.69727288,.00008134,53.1600,32.4984,78.8127,281.2982,0,U,60122,999,11547,-.13220483E-4,-.2191E-4,0
STARLINK-11162 [DTC],2024-118L,2026-06-28T21:29:24.935136,15.69709903,.00008848,53.1592,32.7474,98.1354,261.9764,0,U,60123,999,11546,.12102128E-4,.878E-5,0
STARLINK-11161 [DTC],2024-118M,2026-06-28T21:22:31.455840,15.69670376,.00009425,53.1587,33.4477,89.8573,270.2553,0,U,60124,999,11545,-.31635886E-4,-.4412E-4,0
STARLINK-11160 [DTC],2024-118N,2026-06-28T23:22:17.298912,15.69713009,.00007953,53.1592,32.5268,83.3837,276.7271,0,U,60125,999,11547,.14365701E-4,.1153E-4,0
